[{"OBJECT_NAME":"STARLINK-31602","OBJECT_ID":"2024-046B","EPOCH":"2026-03-09T23:11:43.758816","MEAN_MOTION":15.30186822,"ECCENTRICITY":0.00014213,"INCLINATION":53.1605,"RA_OF_ASC_NODE":153.9289,"ARG_OF_PERICENTER":101.3246,"MEAN_ANOMALY":258.7914,"EPHEMERIS_TYPE":0,"CLASSIFICATION_TYPE":"U","NORAD_CAT_ID":59202,"ELEMENT_SET_NO":999,"REV_AT_EPOCH":11309,"BSTAR":3.1982328e-5,"MEAN_MOTION_DOT":5.88e-6,"MEAN_MOTION_DDOT":0},{"OBJECT_NAME":"FENGYUN 1C DEB","OBJECT_ID":"1999-025CUZ","EPOCH":"2026-03-07T03:33:19.659744","MEAN_MOTION":15.49361115,"ECCENTRICITY":0.0121693,"INCLINATION":97.0067,"RA_OF_ASC_NODE":319.8074,"ARG_OF_PERICENTER":141.5541,"MEAN_ANOMALY":219.4462,"EPHEMERIS_TYPE":0,"CLASSIFICATION_TYPE":"U","NORAD_CAT_ID":32203,"ELEMENT_SET_NO":999,"REV_AT_EPOCH":76401,"BSTAR":0.00044112138,"MEAN_MOTION_DOT":0.00032745,"MEAN_MOTION_DDOT":0}]
